{"type": "FeatureCollection", "features": [ {"type": "Feature", "properties": {"norad_id": 65304, "name": "DRAGON CRS-33", "group": "stations", "lat": -27.271226142436127, "lon": -11.345865416126038, "alt_km": 419.514900916417, "timestamp": "2025-12-12T07:43:19.278596+00:00", "meta": {"OBJECT_NAME": "DRAGON CRS-33", "OBJECT_ID": "2025-186A", "EPOCH": "2025-12-11T21:30:28.324224", "MEAN_MOTION": 15.49521399, "ECCENTRICITY": 0.00032978, "INCLINATION": 51.6307, "RA_OF_ASC_NODE": 146.6565, "ARG_OF_PERICENTER": 237.1442, "MEAN_ANOMALY": 122.9229, "EPHEMERIS_TYPE": 0, "CLASSIFICATION_TYPE": "U", "NORAD_CAT_ID": 65304, "ELEMENT_SET_NO": 999, "REV_AT_EPOCH": 11, "BSTAR": 0.00026380738, "MEAN_MOTION_DOT": 0.00014378, "MEAN_MOTION_DDOT": 0}, "tle": {"line1": "1 65304U 25186A   25345.89616116  .00014378  00000+0  26381-3 0  9992", "line2": "2 65304  51.6307 146.6565 0003297 237.1442 122.9229 15.49521399   116"}}, "geometry": {"type": "Point", "coordinates": [-11.345865416126038, -27.271226142436127]}}, {"type": "Feature", "properties": {"norad_id": 65586, "name": "PROGRESS-MS 32", "group": "stations", "lat": -27.271226650710755, "lon": -11.345864858346703, "alt_km": 419.5149009411507, "timestamp": "2025-12-12T07:43:19.278607+00:00", "meta": {"OBJECT_NAME": "PROGRESS-MS 32", "OBJECT_ID": "2025-204A", "EPOCH": "2025-12-11T21:30:28.324224", "MEAN_MOTION": 15.49521399, "ECCENTRICITY": 0.00032978, "INCLINATION": 51.6307, "RA_OF_ASC_NODE": 146.6565, "ARG_OF_PERICENTER": 237.1442, "MEAN_ANOMALY": 122.9229, "EPHEMERIS_TYPE": 0, "CLASSIFICATION_TYPE": "U", "NORAD_CAT_ID": 65586, "ELEMENT_SET_NO": 999, "REV_AT_EPOCH": 27, "BSTAR": 0.00026380738, "MEAN_MOTION_DOT": 0.00014378, "MEAN_MOTION_DDOT": 0}, "tle": {"line1": "1 65586U 25204A   25345.89616116  .00014378  00000+0  26381-3 0  9995", "line2": "2 65586  51.6307 146.6565 0003297 237.1442 122.9229 15.49521399   275"}}, "geometry": {"type": "Point", "coordinates": [-11.345864858346703, -27.271226650710755]}}, {"type": "Feature", "properties": {"norad_id": 65616, "name": "CYGNUS NG-23", "group": "stations", "lat": -27.27122711277852, "lon": -11.345864351274644, "alt_km": 419.5149009636325, "timestamp": "2025-12-12T07:43:19.278617+00:00", "meta": {"OBJECT_NAME": "CYGNUS NG-23", "OBJECT_ID": "2025-208A", "EPOCH": "2025-12-11T21:30:28.324224", "MEAN_MOTION": 15.49521399, "ECCENTRICITY": 0.00032978, "INCLINATION": 51.6307, "RA_OF_ASC_NODE": 146.6565, "ARG_OF_PERICENTER": 237.1442, "MEAN_ANOMALY": 122.9229, "EPHEMERIS_TYPE": 0, "CLASSIFICATION_TYPE": "U", "NORAD_CAT_ID": 65616, "ELEMENT_SET_NO": 999, "REV_AT_EPOCH": 22, "BSTAR": 0.00026380738, "MEAN_MOTION_DOT": 0.00014378, "MEAN_MOTION_DDOT": 0}, "tle": {"line1": "1 65616U 25208A   25345.89616116  .00014378  00000+0  26381-3 0  9993", "line2": "2 65616  51.6307 146.6565 0003297 237.1442 122.9229 15.49521399   224"}}, "geometry": {"type": "Point", "coordinates": [-11.345864351274644, -27.27122711277852]}}, {"type": "Feature", "properties": {"norad_id": 65729, "name": "DRAGONFLY", "group": "stations", "lat": 15.38669703602547, "lon": -54.693108849242435, "alt_km": 354.40060073476343, "timestamp": "2025-12-12T07:43:19.278628+00:00", "meta": {"OBJECT_NAME": "DRAGONFLY", "OBJECT_ID": "1998-067XH", "EPOCH": "2025-12-11T23:24:46.286208", "MEAN_MOTION": 15.71570854, "ECCENTRICITY": 0.00067276, "INCLINATION": 51.6238, "RA_OF_ASC_NODE": 139.6768, "ARG_OF_PERICENTER": 272.7665, "MEAN_ANOMALY": 87.2563, "EPHEMERIS_TYPE": 0, "CLASSIFICATION_TYPE": "U", "NORAD_CAT_ID": 65729, "ELEMENT_SET_NO": 999, "REV_AT_EPOCH": 1304, "BSTAR": 0.001427359, "MEAN_MOTION_DOT": 0.00191153, "MEAN_MOTION_DDOT": 0}, "tle": {"line1": "1 65729U 98067XH  25345.97553572  .00191153  00000+0  14274-2 0  9990", "line2": "2 65729  51.6238 139.6768 0006727 272.7665  87.2563 15.71570854 13045"}}, "geometry": {"type": "Point", "coordinates": [-54.693108849242435, 15.38669703602547]}}, {"type": "Feature", "properties": {"norad_id": 65731, "name": "1998-067XK", "group": "stations", "lat": -10.67203464181471, "lon": -32.06127827217003, "alt_km": 371.0316181923354, "timestamp": "2025-12-12T07:43:19.278638+00:00", "meta": {"OBJECT_NAME": "1998-067XK", "OBJECT_ID": "1998-067XK", "EPOCH": "2025-12-11T10:58:56.610624", "MEAN_MOTION": 15.65405996, "ECCENTRICITY": 0.00051121, "INCLINATION": 51.6282, "RA_OF_ASC_NODE": 143.7363, "ARG_OF_PERICENTER": 237.7502, "MEAN_ANOMALY": 122.2999, "EPHEMERIS_TYPE": 0, "CLASSIFICATION_TYPE": "U", "NORAD_CAT_ID": 65731, "ELEMENT_SET_NO": 999, "REV_AT_EPOCH": 1294, "BSTAR": 0.0014701886, "MEAN_MOTION_DOT": 0.00152029, "MEAN_MOTION_DDOT": 0}, "tle": {"line1": "1 65731U 98067XK  25345.45759966  .00152029  00000+0  14702-2 0  9996", "line2": "2 65731  51.6282 143.7363 0005112 237.7502 122.2999 15.65405996 12940"}}, "geometry": {"type": "Point", "coordinates": [-32.06127827217003, -10.67203464181471]}}, {"type": "Feature", "properties": {"norad_id": 65732, "name": "RSP-03", "group": "stations", "lat": 14.212310634654093, "lon": -52.919026414232874, "alt_km": 361.44534833920534, "timestamp": "2025-12-12T07:43:19.278649+00:00", "meta": {"OBJECT_NAME": "RSP-03", "OBJECT_ID": "1998-067XL", "EPOCH": "2025-12-11T11:09:18.310464", "MEAN_MOTION": 15.68184189, "ECCENTRICITY": 0.00058259, "INCLINATION": 51.626, "RA_OF_ASC_NODE": 143.0256, "ARG_OF_PERICENTER": 242.1359, "MEAN_ANOMALY": 117.9048, "EPHEMERIS_TYPE": 0, "CLASSIFICATION_TYPE": "U", "NORAD_CAT_ID": 65732, "ELEMENT_SET_NO": 999, "REV_AT_EPOCH": 1296, "BSTAR": 0.0016947067, "MEAN_MOTION_DOT": 0.00197326, "MEAN_MOTION_DDOT": 0}, "tle": {"line1": "1 65732U 98067XL  25345.46479526  .00197326  00000+0  16947-2 0  9991", "line2": "2 65732  51.6260 143.0256 0005825 242.1359 117.9048 15.68184189 12961"}}, "geometry": {"type": "Point", "coordinates": [-52.919026414232874, 14.212310634654093]}}, {"type": "Feature", "properties": {"norad_id": 65733, "name": "GHS-01", "group": "stations", "lat": 47.33077361043206, "lon": -163.37252822532602, "alt_km": 343.6633263757376, "timestamp": "2025-12-12T07:43:19.278659+00:00", "meta": {"OBJECT_NAME": "GHS-01", "OBJECT_ID": "1998-067XM", "EPOCH": "2025-12-11T17:42:59.976288", "MEAN_MOTION": 15.74255219, "ECCENTRICITY": 0.0007045, "INCLINATION": 51.6266, "RA_OF_ASC_NODE": 140.35, "ARG_OF_PERICENTER": 274.7166, "MEAN_ANOMALY": 85.3028, "EPHEMERIS_TYPE": 0, "CLASSIFICATION_TYPE": "U", "NORAD_CAT_ID": 65733, "ELEMENT_SET_NO": 999, "REV_AT_EPOCH": 1302, "BSTAR": 0.0015474625, "MEAN_MOTION_DOT": 0.002337, "MEAN_MOTION_DDOT": 0}, "tle": {"line1": "1 65733U 98067XM  25345.73819417  .00233700  00000+0  15475-2 0  9991", "line2": "2 65733  51.6266 140.3500 0007045 274.7166  85.3028 15.74255219 13027"}}, "geometry": {"type": "Point", "coordinates": [-163.37252822532602, 47.33077361043206]}}, {"type": "Feature", "properties": {"norad_id": 65941, "name": "YOTSUBA-KULOVER", "group": "stations", "lat": -27.45809986014143, "lon": 117.76376042560858, "alt_km": 392.8386117614582, "timestamp": "2025-12-12T07:43:19.278670+00:00", "meta": {"OBJECT_NAME": "YOTSUBA-KULOVER", "OBJECT_ID": "1998-067XN", "EPOCH": "2025-12-11T19:34:16.498272", "MEAN_MOTION": 15.59284629, "ECCENTRICITY": 0.00014791, "INCLINATION": 51.6283, "RA_OF_ASC_NODE": 144.6232, "ARG_OF_PERICENTER": 240.6156, "MEAN_ANOMALY": 119.469, "EPHEMERIS_TYPE": 0, "CLASSIFICATION_TYPE": "U", "NORAD_CAT_ID": 65941, "ELEMENT_SET_NO": 999, "REV_AT_EPOCH": 971, "BSTAR": 0.00099850147, "MEAN_MOTION_DOT": 0.00080384, "MEAN_MOTION_DDOT": 0}, "tle": {"line1": "1 65941U 98067XN  25345.81546873  .00080384  00000+0  99850-3 0  9992", "line2": "2 65941  51.6283 144.6232 0001479 240.6156 119.4690 15.59284629  9717"}}, "geometry": {"type": "Point", "coordinates": [117.76376042560858, -27.45809986014143]}}, {"type": "Feature", "properties": {"norad_id": 65942, "name": "BOTAN", "group": "stations", "lat": -48.39754887188297, "lon": 78.22777922415968, "alt_km": 383.0162297023653, "timestamp": "2025-12-12T07:43:19.278681+00:00", "meta": {"OBJECT_NAME": "BOTAN", "OBJECT_ID": "1998-067XP", "EPOCH": "2025-12-11T19:45:11.743776", "MEAN_MOTION": 15.62613075, "ECCENTRICITY": 0.00032624, "INCLINATION": 51.6277, "RA_OF_ASC_NODE": 143.9237, "ARG_OF_PERICENTER": 230.4423, "MEAN_ANOMALY": 129.6283, "EPHEMERIS_TYPE": 0, "CLASSIFICATION_TYPE": "U", "NORAD_CAT_ID": 65942, "ELEMENT_SET_NO": 999, "REV_AT_EPOCH": 972, "BSTAR": 0.0013163982, "MEAN_MOTION_DOT": 0.00121329, "MEAN_MOTION_DDOT": 0}, "tle": {"line1": "1 65942U 98067XP  25345.82305259  .00121329  00000+0  13164-2 0  9993", "line2": "2 65942  51.6277 143.9237 0003262 230.4423 129.6283 15.62613075  9721"}}, "geometry": {"type": "Point", "coordinates": [78.22777922415968, -48.39754887188297]}}, {"type": "Feature", "properties": {"norad_id": 65943, "name": "E-KAGAKU-1", "group": "stations", "lat": -27.284655987372076, "lon": 117.94724468850971, "alt_km": 394.8305551222493, "timestamp": "2025-12-12T07:43:19.278691+00:00", "meta": {"OBJECT_NAME": "E-KAGAKU-1", "OBJECT_ID": "1998-067XQ", "EPOCH": "2025-12-10T06:39:08.237952", "MEAN_MOTION": 15.5900432, "ECCENTRICITY": 0.00052507, "INCLINATION": 51.6298, "RA_OF_ASC_NODE": 152.3458, "ARG_OF_PERICENTER": 191.2269, "MEAN_ANOMALY": 168.8608, "EPHEMERIS_TYPE": 0, "CLASSIFICATION_TYPE": "U", "NORAD_CAT_ID": 65943, "ELEMENT_SET_NO": 999, "REV_AT_EPOCH": 947, "BSTAR": 0.0012588803, "MEAN_MOTION_DOT": 0.00100705, "MEAN_MOTION_DDOT": 0}, "tle": {"line1": "1 65943U 98067XQ  25344.27717868  .00100705  00000+0  12589-2 0  9990", "line2": "2 65943  51.6298 152.3458 0005250 191.2269 168.8608 15.59004320  9476"}}, "geometry": {"type": "Point", "coordinates": [117.94724468850971, -27.284655987372076]}}]}